     3.04           N: GNSS NAV DATA    M: MIXED NAV DATA   RINEX VERSION / TYPE
cnvtToRINEX 3.15.0  convertToRINEX OPR  20241020 110513 UTC PGM / RUN BY / DATE 
----------------------------------------------------------- COMMENT             
GPSA   0.1583D-07  0.2235D-07 -0.1192D-06 -0.1192D-06       IONOSPHERIC CORR    
GPSB   0.1208D+06  0.1638D+06 -0.1311D+06 -0.3277D+06       IONOSPHERIC CORR    
GAL    0.2003D+03  0.1289D+00  0.1776D-01                   IONOSPHERIC CORR    
QZSA   0.2142D-07 -0.7451D-08 -0.2384D-06 -0.3576D-06       IONOSPHERIC CORR    
QZSB   0.1270D+06  0.2294D+06  0.1835D+07  0.5243D+07       IONOSPHERIC CORR    
BDSA   0.4005D-07 -0.7451D-08 -0.5960D-06  0.1013D-05       IONOSPHERIC CORR    
BDSB   0.1085D+06 -0.2294D+06  0.2425D+07 -0.1901D+07       IONOSPHERIC CORR    
GPUT -0.1862645149D-08-0.266453526D-14 405504 2324          TIME SYSTEM CORR    
GLUT  0.1862645149D-08 0.000000000D+00 405504 2324          TIME SYSTEM CORR    
GAUT -0.1862645149D-08 0.888178420D-15 172800 2324          TIME SYSTEM CORR    
GAGP  0.9313225746D-09 0.173194792D-13 172800 2324          TIME SYSTEM CORR    
QZUT -0.5587935448D-08 0.000000000D+00 356352 2324          TIME SYSTEM CORR    
BDUT  0.0000000000D+00 0.000000000D+00     14  968          TIME SYSTEM CORR    
    18    18   137     7                                    LEAP SECONDS        
                                                            END OF HEADER
E12 2024 07 23 01 30 00-0.113538245205D-02-0.160014224093D-10 0.000000000000D+00
     0.430000000000D+02 0.196093750000D+03 0.240474302434D-08 0.139741549071D+01
     0.918656587601D-05 0.337474630214D-03 0.643916428089D-05 0.544061540031D+04
     0.178200000000D+06 0.130385160446D-07 0.107106194267D+01-0.149011611938D-07
     0.996927642975D+00 0.219031250000D+03 0.941889935028D+00-0.548558563952D-08
     0.360372153804D-09 0.513000000000D+03 0.232400000000D+04 0.000000000000D+00
    -0.100000000000D+01 0.000000000000D+00-0.128056854010D-07-0.132713466883D-07
     0.179995000000D+06 0.000000000000D+00 0.000000000000D+00 0.000000000000D+00
E 9 2024 07 23 00 40 00-0.525348179508D-03-0.138555833473D-10 0.000000000000D+00
     0.380000000000D+02-0.180593750000D+03 0.288083428403D-08-0.827615335672D+00
    -0.833533704281D-05 0.345533364452D-03 0.114627182484D-04 0.544062739754D+04
     0.175200000000D+06-0.111758708954D-07-0.312127989416D+01 0.316649675369D-07
     0.968166988064D+00 0.986562500000D+02-0.597981765026D-01-0.541736851229D-08
    -0.153577825704D-10 0.513000000000D+03 0.232400000000D+04 0.000000000000D+00
     0.312000000000D+01 0.000000000000D+00 0.000000000000D+00-0.465661287308D-09
     0.176905000000D+06 0.000000000000D+00 0.000000000000D+00 0.000000000000D+00
E 9 2024 07 23 00 40 00-0.525348237716D-03-0.138555833473D-10 0.000000000000D+00
     0.380000000000D+02-0.180593750000D+03 0.288083428403D-08-0.827615335672D+00
    -0.833533704281D-05 0.345533364452D-03 0.114627182484D-04 0.544062739754D+04
     0.175200000000D+06-0.111758708954D-07-0.312127989416D+01 0.316649675369D-07
     0.968166988064D+00 0.986562500000D+02-0.597981765026D-01-0.541736851229D-08
    -0.153577825704D-10 0.258000000000D+03 0.232400000000D+04 0.000000000000D+00
     0.312000000000D+01 0.000000000000D+00 0.000000000000D+00 0.000000000000D+00
     0.176920000000D+06 0.000000000000D+00 0.000000000000D+00 0.000000000000D+00
E 9 2024 07 23 00 40 00-0.525348179508D-03-0.138555833473D-10 0.000000000000D+00
     0.380000000000D+02-0.180593750000D+03 0.288083428403D-08-0.827615335672D+00
    -0.833533704281D-05 0.345533364452D-03 0.114627182484D-04 0.544062739754D+04
     0.175200000000D+06-0.111758708954D-07-0.312127989416D+01 0.316649675369D-07
     0.968166988064D+00 0.986562500000D+02-0.597981765026D-01-0.541736851229D-08
    -0.153577825704D-10 0.516000000000D+03 0.232400000000D+04 0.000000000000D+00
     0.312000000000D+01 0.000000000000D+00 0.000000000000D+00-0.465661287308D-09
     0.176884000000D+06 0.000000000000D+00 0.000000000000D+00 0.000000000000D+00
E 4 2024 07 23 01 40 00 0.988610554487D-05-0.926547727431D-11 0.000000000000D+00
     0.440000000000D+02-0.184312500000D+03 0.290190659034D-08 0.120986960361D+01
    -0.873208045959D-05 0.221536145546D-03 0.107809901237D-04 0.544062451744D+04
     0.178800000000D+06-0.353902578354D-07-0.312137334829D+01-0.186264514923D-07
     0.962318000202D+00 0.115687500000D+03-0.899718673511D+00-0.545594154758D-08
    -0.110718897601D-10 0.513000000000D+03 0.232400000000D+04 0.000000000000D+00
     0.312000000000D+01 0.000000000000D+00-0.442378222942D-08-0.535510480404D-08
     0.179485000000D+06 0.000000000000D+00 0.000000000000D+00 0.000000000000D+00
E 4 2024 07 23 01 40 00 0.988662941381D-05-0.926547727431D-11 0.000000000000D+00
     0.440000000000D+02-0.184312500000D+03 0.290190659034D-08 0.120986960361D+01
    -0.873208045959D-05 0.221536145546D-03 0.107809901237D-04 0.544062451744D+04
     0.178800000000D+06-0.353902578354D-07-0.312137334829D+01-0.186264514923D-07
     0.962318000202D+00 0.115687500000D+03-0.899718673511D+00-0.545594154758D-08
    -0.110718897601D-10 0.258000000000D+03 0.232400000000D+04 0.000000000000D+00
     0.312000000000D+01 0.000000000000D+00-0.442378222942D-08 0.000000000000D+00
     0.179520000000D+06 0.000000000000D+00 0.000000000000D+00 0.000000000000D+00
E 4 2024 07 23 01 40 00 0.988610554487D-05-0.926547727431D-11 0.000000000000D+00
     0.440000000000D+02-0.184312500000D+03 0.290190659034D-08 0.120986960361D+01
    -0.873208045959D-05 0.221536145546D-03 0.107809901237D-04 0.544062451744D+04
     0.178800000000D+06-0.353902578354D-07-0.312137334829D+01-0.186264514923D-07
     0.962318000202D+00 0.115687500000D+03-0.899718673511D+00-0.545594154758D-08
    -0.110718897601D-10 0.516000000000D+03 0.232400000000D+04 0.000000000000D+00
     0.312000000000D+01 0.000000000000D+00-0.442378222942D-08-0.535510480404D-08
     0.179464000000D+06 0.000000000000D+00 0.000000000000D+00 0.000000000000D+00
E 2 2024 07 23 00 50 00 0.145434634760D-03 0.301270119962D-11 0.000000000000D+00
     0.390000000000D+02-0.201875000000D+02 0.369836833760D-08 0.193037879651D+01
    -0.992789864540D-06 0.189725309610D-03 0.423751771450D-05 0.544060068703D+04
     0.175800000000D+06-0.353902578354D-07-0.101868092175D+01 0.242143869400D-07
     0.965602090369D+00 0.252781250000D+03-0.128952705981D+00-0.576845456500D-08
    -0.360372153804D-09 0.513000000000D+03 0.232400000000D+04 0.000000000000D+00
     0.312000000000D+01 0.000000000000D+00-0.488944351673D-08-0.605359673500D-08
     0.176485000000D+06 0.000000000000D+00 0.000000000000D+00 0.000000000000D+00
E 2 2024 07 23 00 50 00 0.145435624290D-03 0.299849034491D-11 0.000000000000D+00
     0.390000000000D+02-0.201875000000D+02 0.369836833760D-08 0.193037879651D+01
    -0.992789864540D-06 0.189725309610D-03 0.423751771450D-05 0.544060068703D+04
     0.175800000000D+06-0.353902578354D-07-0.101868092175D+01 0.242143869400D-07
     0.965602090369D+00 0.252781250000D+03-0.128952705981D+00-0.576845456500D-08
    -0.360372153804D-09 0.258000000000D+03 0.232400000000D+04 0.000000000000D+00
     0.312000000000D+01 0.000000000000D+00-0.488944351673D-08 0.000000000000D+00
     0.176520000000D+06 0.000000000000D+00 0.000000000000D+00 0.000000000000D+00
E 2 2024 07 23 00 50 00 0.145434634760D-03 0.301270119962D-11 0.000000000000D+00
     0.390000000000D+02-0.201875000000D+02 0.369836833760D-08 0.193037879651D+01
    -0.992789864540D-06 0.189725309610D-03 0.423751771450D-05 0.544060068703D+04
     0.175800000000D+06-0.353902578354D-07-0.101868092175D+01 0.242143869400D-07
     0.965602090369D+00 0.252781250000D+03-0.128952705981D+00-0.576845456500D-08
    -0.360372153804D-09 0.516000000000D+03 0.232400000000D+04 0.000000000000D+00
     0.312000000000D+01 0.000000000000D+00-0.488944351673D-08-0.605359673500D-08
     0.176464000000D+06 0.000000000000D+00 0.000000000000D+00 0.000000000000D+00
E19 2024 07 23 01 40 00 0.333512609359D-03 0.632667251921D-10 0.000000000000D+00
     0.440000000000D+02-0.194937500000D+03 0.282261757335D-08 0.239130811410D+01
    -0.923871994019D-05 0.210314989090D-03 0.104214996099D-04 0.544062986374D+04
     0.178800000000D+06 0.130385160446D-07-0.311623394591D+01-0.353902578354D-07
     0.967840327234D+00 0.118593750000D+03-0.119636241369D+01-0.542201156283D-08
    -0.135719938995D-10 0.513000000000D+03 0.232400000000D+04 0.000000000000D+00
     0.312000000000D+01 0.000000000000D+00-0.465661287308D-08-0.558793544769D-08
     0.179485000000D+06 0.000000000000D+00 0.000000000000D+00 0.000000000000D+00
E19 2024 07 23 01 40 00 0.333513133228D-03 0.632667251921D-10 0.000000000000D+00
     0.440000000000D+02-0.194937500000D+03 0.282261757335D-08 0.239130811410D+01
    -0.923871994019D-05 0.210314989090D-03 0.104214996099D-04 0.544062986374D+04
     0.178800000000D+06 0.130385160446D-07-0.311623394591D+01-0.353902578354D-07
     0.967840327234D+00 0.118593750000D+03-0.119636241369D+01-0.542201156283D-08
    -0.135719938995D-10 0.258000000000D+03 0.232400000000D+04 0.000000000000D+00
     0.312000000000D+01 0.000000000000D+00-0.465661287308D-08 0.000000000000D+00
     0.179520000000D+06 0.000000000000D+00 0.000000000000D+00 0.000000000000D+00
E19 2024 07 23 01 40 00 0.333512609359D-03 0.632667251921D-10 0.000000000000D+00
     0.440000000000D+02-0.194937500000D+03 0.282261757335D-08 0.239130811410D+01
    -0.923871994019D-05 0.210314989090D-03 0.104214996099D-04 0.544062986374D+04
     0.178800000000D+06 0.130385160446D-07-0.311623394591D+01-0.353902578354D-07
     0.967840327234D+00 0.118593750000D+03-0.119636241369D+01-0.542201156283D-08
    -0.135719938995D-10 0.516000000000D+03 0.232400000000D+04 0.000000000000D+00
     0.312000000000D+01 0.000000000000D+00-0.465661287308D-08-0.558793544769D-08
     0.179464000000D+06 0.000000000000D+00 0.000000000000D+00 0.000000000000D+00
